GPS BIIF-4              
1 39166U 13023A   26072.95476941  .00000035  00000+0  00000+0 0  9992
2 39166  54.5793 272.8513 0141786  50.0653 311.2026  2.00564183 93976
INSAT-3D                
1 39216U 13038B   26074.23592457 -.00000339  00000+0  00000+0 0  9996
2 39216   1.6817  83.7704 0001549 245.0074  58.5107  1.00276049 46135
GPS BIIF-5              
1 39533U 14008A   26072.95373021 -.00000008  00000+0  00000+0 0  9990
2 39533  53.6383 153.2055 0082642 228.6391 130.6893  2.00553744 87776
LUCH 5V                 
1 39727U 14023A   26074.01509697 -.00000266  00000+0  00000+0 0  9997
2 39727   4.8999  70.6618 0003160 298.3392 263.7293  1.00268683 43411
GPS BIIF-6              
1 39741U 14026A   26073.23128864 -.00000074  00000+0  00000+0 0  9999
2 39741  56.5417 335.2169 0039739 325.0603  34.7215  2.00568021 86632
GPS BIIF-7              
1 40105U 14045A   26073.31949591  .00000042  00000+0  00000+0 0  9997
2 40105  55.2885  92.2427 0031424 120.3235 240.0488  2.00552225 84170
GSAT0201 (GALILEO 5)    
1 40128U 14050A   26070.32154952  .00000005  00000+0  00000+0 0  9994
2 40128  48.9815 277.4406 1658807 175.5932 186.0859  1.85520170 76503
GSAT0202 (GALILEO 6)    
1 40129U 14050B   26070.57744300  .00000009  00000+0  00000+0 0  9998
2 40129  48.9971 276.5149 1659654 176.3418 185.0558  1.85520847 78676
GPS BIIF-8              
1 40294U 14068A   26074.19398010 -.00000045  00000+0  00000+0 0  9996
2 40294  56.9270  34.5761 0063290  68.1149 292.5499  2.00570489 83326
GLONASS-K 2             
1 40315U 14075A   26073.04100405  .00000000  00000+0  00000+0 0  9990
2 40315  63.6166 193.6632 0020968 206.5488 153.3288  2.13101375 87829
GPS BIIF-9              
1 40534U 15013A   26073.32863892  .00000004  00000+0  00000+0 0  9997
2 40534  53.1840 208.0995 0108770  39.8522 320.9054  2.00556996 79926
GSAT0203 (GALILEO 7)    
1 40544U 15017A   26073.77283651 -.00000080  00000+0  00000+0 0  9995
2 40544  56.8177 344.1724 0004675 298.3422  61.6410  1.70475756 67597
GSAT0204 (GALILEO 8)    
1 40545U 15017B   26073.44184568 -.00000081  00000+0  00000+0 0  9998
2 40545  56.8237 344.1993 0004611 291.5238  68.4567  1.70475400 30632
GPS BIIF-10             
1 40730U 15033A   26072.99041878  .00000035  00000+0  00000+0 0  9995
2 40730  54.0576 271.0094 0114687  29.1823 331.4807  2.00561166 78084
METEOSAT-11 (MSG-4)     
1 40732U 15034A   26074.27961642  .00000062  00000+0  00000+0 0  9991
2 40732   2.9656  71.6157 0001832 275.2073 295.9483  1.00269539  6273
GSAT0206 (GALILEO 10)   
1 40890U 15045B   26071.08432484  .00000037  00000+0  00000+0 0  9993
2 40890  54.9793 224.2827 0003542  50.5001 309.4904  1.70473824 65389
GPS BIIF-11             
1 41019U 15062A   26073.54768049 -.00000046  00000+0  00000+0 0  9999
2 41019  56.8998  34.4573 0111400 231.5515 127.4408  2.00567062 75935
